CAS-2T & KS-1Q          
1 41847U 16066G   21003.86526923  .00000075  00000-0  21906-4 0  9994
2 41847  98.6274  62.1063 0365271 351.6994   7.8251 14.38133172218222
NAYIF-1 (EO-88)         
1 42017U 17008BX  21003.89842469  .00002099  00000-0  81160-4 0  9996
2 42017  97.3377  74.3571 0005431 348.1943  11.9168 15.27319398216131
ZHUHAI-1 02 (CAS-4B)    
1 42759U 17034B   21004.46670586  .00000574  00000-0  48079-4 0  9999
2 42759  43.0192   2.4934 0010206 224.0816 270.2807 15.10031297196351
ZHUHAI-1 01 (CAS-4A)    
1 42761U 17034D   21004.46668498  .00000545  00000-0  46220-4 0  9995
2 42761  43.0195   1.6606 0010717 224.6161 270.2186 15.10111522196350
MAX VALIER SAT          
1 42778U 17036P   21003.88950030  .00001230  00000-0  54965-4 0  9993
2 42778  97.2796  57.7212 0013037  43.1210 317.1046 15.23111574196232
RADFXSAT (FOX-1B)       
1 43017U 17073E   21004.31585254  .00000580  00000-0  49586-4 0  9992
2 43017  97.7173 274.7340 0257267 115.5743 247.2302 14.79241127168859
FOX-1D (AO-92)          
1 43137U 18004AC  21003.69907138  .00001510  00000-0  63949-4 0  9992
2 43137  97.4263  79.3248 0010533  74.9122 285.3280 15.24683745165556
DIWATA-2B               
1 43678U 18084H   21004.58247813  .00000535  00000-0  58897-4 0  9998
2 43678  97.9048 129.2583 0008844 227.2372 132.8081 14.91698051119004
ES'HAIL 2               
1 43700U 18090A   21004.11944282  .00000154  00000-0  00000+0 0  9999
2 43700   0.0178  36.6227 0001685 283.1693 212.9437  1.00269691  7964
FOX-1CLIFF (AO-95)      
1 43770U 18099N   21004.16038605  .00000436  00000-0  44854-4 0  9996
2 43770  97.6861  77.8255 0013180 244.1661 115.8201 14.95160928113908
ITASAT 1                
1 43786U 18099AE  21004.18000048 -.00000090  00000-0 -29654-5 0  9995
2 43786  97.6877  78.4080 0014017 237.3290 122.6579 14.95475072113933
JY1SAT (JO-97)          
1 43803U 18099AX  21004.16898858  .00000118  00000-0  15774-4 0  9993
2 43803  97.6840  78.1731 0013887 237.3960 122.5921 14.95688798113932
PSAT2 (NO-104)          
1 44354U 19036R   21004.50908517  .00009611  00000-0  13121-3 0  9999
2 44354  28.5307 136.0453 0344000 305.0924  51.7870 15.08677039 84144
BRICSAT2 (NO-103)       
1 44355U 19036S   21004.45753181  .00020228  00000-0  25074-3 0  9996
2 44355  28.5288 113.0105 0303835 342.6302  16.4090 15.19091367 84373
JAISAT-1                
1 44419U 19038F   21004.41348916  .00001212  00000-0  71545-4 0  9998
2 44419  97.5669 330.0161 0021872 153.8783 206.3557 15.13270574 82985
DUCHIFAT-3              
1 44854U 19089C   21004.30692576  .00000636  00000-0  57490-4 0  9991
2 44854  36.9669 351.1969 0008867 253.4879 106.4869 14.99281866 58457
RS-44 & BREEZE-KM R/B   
1 44909U 19096E   21003.89724915  .00000014  00000-0  46051-5 0  9998
2 44909  82.5200 222.1255 0218273 117.7493 244.5930 12.79708099 47829
ORBITAL FACTORY 2 (OF-2)
1 45113U 19071C   21003.70686105  .00003812  00000-0  12326-3 0  9992
2 45113  51.6426 115.5308 0012820  60.0183 300.2070 15.34524652 51863
HUSKYSAT-1              
1 45119U 19071J   21004.50789956  .00002999  00000-0  99021-4 0  9998
2 45119  51.6423 111.1285 0012214  59.6283 300.5906 15.34653896 51981
BY70-2                  
1 45857U 20042B   21004.40737914  .00001348  00000-0  20032-3 0  9995
2 45857  97.9995  81.8130 0011109  30.1543 330.0296 14.76600639 27338
SALSAT                  
1 46495U 20068K   21003.79626984 -.00000062  00000-0 -13213-7 0  9998
2 46495  97.6807 302.4303 0015061 271.7675  88.1824 15.03311882 14592
BY70-3                  
1 46839U 20079N   21004.49373840  .00003060  00000-0  99557-4 0  9991
2 46839  97.2595  81.5830 0009042  77.8464  19.9570 15.32590559  9087
OSCAR 7 (AO-7)          
1 07530U 74089B   21004.51132677 -.00000035  00000-0  63669-4 0  9995
2 07530 101.8315 339.3423 0012243 338.5014 139.2458 12.53646762111422
